[{"OBJECT_NAME":"DUBAISAT-2","OBJECT_ID":"2013-066D","EPOCH":"2026-03-09T22:07:51.982752","MEAN_MOTION":15.09361694,"ECCENTRICITY":0.00120191,"INCLINATION":97.4538,"RA_OF_ASC_NODE":61.7474,"ARG_OF_PERICENTER":22.7165,"MEAN_ANOMALY":337.4593,"EPHEMERIS_TYPE":0,"CLASSIFICATION_TYPE":"U","NORAD_CAT_ID":39419,"ELEMENT_SET_NO":999,"REV_AT_EPOCH":67141,"BSTAR":0.00034743884,"MEAN_MOTION_DOT":5.495e-5,"MEAN_MOTION_DDOT":0},{"OBJECT_NAME":"STARLINK-4510","OBJECT_ID":"2022-097T","EPOCH":"2026-03-09T12:40:52.958208","MEAN_MOTION":15.08834451,"ECCENTRICITY":0.00012436,"INCLINATION":53.2169,"RA_OF_ASC_NODE":124.8466,"ARG_OF_PERICENTER":90.9214,"MEAN_ANOMALY":269.1921,"EPHEMERIS_TYPE":0,"CLASSIFICATION_TYPE":"U","NORAD_CAT_ID":53405,"ELEMENT_SET_NO":999,"REV_AT_EPOCH":19849,"BSTAR":9.3721942e-5,"MEAN_MOTION_DOT":1.204e-5,"MEAN_MOTION_DDOT":0}]
